{"type":"FeatureCollection","name":"santa_catarina_simplificado","features":[{"type":"Feature","properties":{"name":"Santa Catarina","uf":"SC","source":"Contorno simplificado para visualização estática; substitua por malha oficial do IBGE no gerador GeoPandas quando houver rede."},"geometry":{"type":"Polygon","coordinates":[[[-53.84,-26.30],[-53.30,-25.95],[-52.30,-26.00],[-51.20,-25.98],[-50.00,-26.00],[-48.60,-25.96],[-48.36,-26.30],[-48.48,-27.00],[-48.35,-27.55],[-48.65,-28.10],[-49.40,-28.65],[-50.10,-28.85],[-51.20,-28.35],[-52.20,-27.80],[-53.00,-27.10],[-53.84,-26.65],[-53.84,-26.30]]]}}]}
